{
    "links": {
        "self": "http://www.neowsapp.com/rest/v1/neo/3751195?api_key=iIulBulltgU6a56xZRHN4H3l9WmuAYTsLGpBGhQ2"
    },
    "id": "3751195",
    "neo_reference_id": "3751195",
    "name": "(2016 GL206)",
    "designation": "2016 GL206",
    "nasa_jpl_url": "http://ssd.jpl.nasa.gov/sbdb.cgi?sstr=3751195",
    "absolute_magnitude_h": 24.5,
    "estimated_diameter": {
        "kilometers": {
            "estimated_diameter_min": 0.0334622374,
            "estimated_diameter_max": 0.0748238376
        },
        "meters": {
            "estimated_diameter_min": 33.4622374455,
            "estimated_diameter_max": 74.8238376074
        },
        "miles": {
            "estimated_diameter_min": 0.0207924639,
            "estimated_diameter_max": 0.0464933628
        },
        "feet": {
            "estimated_diameter_min": 109.7842471007,
            "estimated_diameter_max": 245.4850393757
        }
    },
    "is_potentially_hazardous_asteroid": false,
    "close_approach_data": [
        {
            "close_approach_date": "1987-04-10",
            "close_approach_date_full": "1987-Apr-10 18:43",
            "epoch_date_close_approach": 545078580000,
            "relative_velocity": {
                "kilometers_per_second": "33.471899649",
                "kilometers_per_hour": "120498.8387363186",
                "miles_per_hour": "74873.2923247975"
            },
            "miss_distance": {
                "astronomical": "0.3451253736",
                "lunar": "134.2537703304",
                "kilometers": "51630020.773514232",
                "miles": "32081407.2740391216"
            },
            "orbiting_body": "Earth"
        },
        {
            "close_approach_date": "2016-03-26",
            "close_approach_date_full": "2016-Mar-26 17:18",
            "epoch_date_close_approach": 1459012680000,
            "relative_velocity": {
                "kilometers_per_second": "24.566990956",
                "kilometers_per_hour": "88441.1674417516",
                "miles_per_hour": "54953.9020695706"
            },
            "miss_distance": {
                "astronomical": "0.0519843479",
                "lunar": "20.2219113331",
                "kilometers": "7776747.719178973",
                "miles": "4832246.9584289074"
            },
            "orbiting_body": "Earth"
        },
        {
            "close_approach_date": "2162-04-17",
            "close_approach_date_full": "2162-Apr-17 05:54",
            "epoch_date_close_approach": 6068152440000,
            "relative_velocity": {
                "kilometers_per_second": "5.8156990587",
                "kilometers_per_hour": "20936.5166114858",
                "miles_per_hour": "13009.137224509"
            },
            "miss_distance": {
                "astronomical": "1.4794934883",
                "lunar": "575.5229669487",
                "kilometers": "221329074.528549921",
                "miles": "137527509.6766780698"
            },
            "orbiting_body": "Juptr"
        }
    ],
    "orbital_data": {
        "orbit_id": "4",
        "orbit_determination_date": "2017-04-06 08:26:39",
        "first_observation_date": "2016-04-03",
        "last_observation_date": "2016-04-10",
        "data_arc_in_days": 7,
        "observations_used": 19,
        "orbit_uncertainty": "8",
        "minimum_orbit_intersection": ".0195022",
        "jupiter_tisserand_invariant": "3.224",
        "epoch_osculation": "2457483.5",
        "eccentricity": ".7622495094721442",
        "semi_major_axis": "2.180868931423545",
        "inclination": "1.246230714583165",
        "ascending_node_longitude": "107.68673638",
        "orbital_period": "1176.366843669956",
        "perihelion_distance": ".5185026582229085",
        "perihelion_argument": "339.7632659004464",
        "aphelion_distance": "3.843235204624182",
        "perihelion_time": "2457428.924305102148",
        "mean_anomaly": "16.70163543706524",
        "mean_motion": ".3060269863411777",
        "equinox": "J2000",
        "orbit_class": {
            "orbit_class_type": "APO",
            "orbit_class_description": "Near-Earth asteroid orbits which cross the Earth’s orbit similar to that of 1862 Apollo",
            "orbit_class_range": "a (semi-major axis) > 1.0 AU; q (perihelion) < 1.017 AU"
        }
    },
    "is_sentry_object": false
}